CCSDS_OMM_VERS = 2.0
CREATION_DATE  = 
ORIGINATOR     = 

OBJECT_NAME    = UNKNOWN
OBJECT_ID      = 
CENTER_NAME    = EARTH
REF_FRAME      = TEME
TIME_SYSTEM    = UTC
MEAN_ELEMENT_THEORY = SGP/SGP4

EPOCH          = 2026-01-29T12:07:52.561344
MEAN_MOTION    = 14.93214976
ECCENTRICITY   = .00094591
INCLINATION    = 97.8172
RA_OF_ASC_NODE = 120.9132
ARG_OF_PERICENTER = 197.8955
MEAN_ANOMALY   = 162.1932

EPHEMERIS_TYPE = 0
CLASSIFICATION_TYPE = U
NORAD_CAT_ID   = 270138
ELEMENT_SET_NO = 999
REV_AT_EPOCH   = 33433
BSTAR          = .62388084E-3
MEAN_MOTION_DOT = .6471E-4
MEAN_MOTION_DDOT = 0

CCSDS_OMM_VERS = 2.0
CREATION_DATE  = 
ORIGINATOR     = 

OBJECT_NAME    = UNKNOWN
OBJECT_ID      = 
CENTER_NAME    = EARTH
REF_FRAME      = TEME
TIME_SYSTEM    = UTC
MEAN_ELEMENT_THEORY = SGP/SGP4

EPOCH          = 2026-01-28T12:09:14.749344
MEAN_MOTION    = 12.51215279
ECCENTRICITY   = .07754422
INCLINATION    = 99.4324
RA_OF_ASC_NODE = 119.4823
ARG_OF_PERICENTER = 332.6882
MEAN_ANOMALY   = 23.5353

EPHEMERIS_TYPE = 0
CLASSIFICATION_TYPE = U
NORAD_CAT_ID   = 270140
ELEMENT_SET_NO = 999
REV_AT_EPOCH   = 28093
BSTAR          = .44296949E-2
MEAN_MOTION_DOT = .2046E-4
MEAN_MOTION_DDOT = 0

CCSDS_OMM_VERS = 2.0
CREATION_DATE  = 
ORIGINATOR     = 

OBJECT_NAME    = UNKNOWN
OBJECT_ID      = 
CENTER_NAME    = EARTH
REF_FRAME      = TEME
TIME_SYSTEM    = UTC
MEAN_ELEMENT_THEORY = SGP/SGP4

EPOCH          = 2026-01-22T07:11:19.872384
MEAN_MOTION    = 12.42202334
ECCENTRICITY   = .00253128
INCLINATION    = 73.6065
RA_OF_ASC_NODE = 226.1594
ARG_OF_PERICENTER = 57.2650
MEAN_ANOMALY   = 303.0829

EPHEMERIS_TYPE = 0
CLASSIFICATION_TYPE = U
NORAD_CAT_ID   = 270141
ELEMENT_SET_NO = 999
REV_AT_EPOCH   = 27913
BSTAR          = .21966336E-3
MEAN_MOTION_DOT = .13E-6
MEAN_MOTION_DDOT = 0

CCSDS_OMM_VERS = 2.0
CREATION_DATE  = 
ORIGINATOR     = 

OBJECT_NAME    = UNKNOWN
OBJECT_ID      = 
CENTER_NAME    = EARTH
REF_FRAME      = TEME
TIME_SYSTEM    = UTC
MEAN_ELEMENT_THEORY = SGP/SGP4

EPOCH          = 2026-01-17T22:00:18.451872
MEAN_MOTION    = 13.68218938
ECCENTRICITY   = .00437833
INCLINATION    = 99.2653
RA_OF_ASC_NODE = 247.8262
ARG_OF_PERICENTER = 123.5678
MEAN_ANOMALY   = 236.9660

EPHEMERIS_TYPE = 0
CLASSIFICATION_TYPE = U
NORAD_CAT_ID   = 270143
ELEMENT_SET_NO = 999
REV_AT_EPOCH   = 30677
BSTAR          = .26955882E-3
MEAN_MOTION_DOT = .19E-5
MEAN_MOTION_DDOT = 0

CCSDS_OMM_VERS = 2.0
CREATION_DATE  = 
ORIGINATOR     = 

OBJECT_NAME    = UNKNOWN
OBJECT_ID      = 
CENTER_NAME    = EARTH
REF_FRAME      = TEME
TIME_SYSTEM    = UTC
MEAN_ELEMENT_THEORY = SGP/SGP4

EPOCH          = 2026-01-14T04:37:24.601440
MEAN_MOTION    = 14.53212140
ECCENTRICITY   = .00166518
INCLINATION    = 86.3081
RA_OF_ASC_NODE = 346.6148
ARG_OF_PERICENTER = 27.6150
MEAN_ANOMALY   = 332.5937

EPHEMERIS_TYPE = 0
CLASSIFICATION_TYPE = U
NORAD_CAT_ID   = 270144
ELEMENT_SET_NO = 999
REV_AT_EPOCH   = 32245
BSTAR          = .54755994E-3
MEAN_MOTION_DOT = .2293E-4
MEAN_MOTION_DDOT = 0

CCSDS_OMM_VERS = 2.0
CREATION_DATE  = 
ORIGINATOR     = 

OBJECT_NAME    = UNKNOWN
OBJECT_ID      = 
CENTER_NAME    = EARTH
REF_FRAME      = TEME
TIME_SYSTEM    = UTC
MEAN_ELEMENT_THEORY = SGP/SGP4

EPOCH          = 2026-01-06T00:49:21.289152
MEAN_MOTION    = 11.70030082
ECCENTRICITY   = .04432478
INCLINATION    = 102.5044
RA_OF_ASC_NODE = 295.7229
ARG_OF_PERICENTER = 127.7511
MEAN_ANOMALY   = 236.4534

EPHEMERIS_TYPE = 0
CLASSIFICATION_TYPE = U
NORAD_CAT_ID   = 270145
ELEMENT_SET_NO = 999
REV_AT_EPOCH   = 2071
BSTAR          = .58878207E-1
MEAN_MOTION_DOT = .423E-4
MEAN_MOTION_DDOT = 0

CCSDS_OMM_VERS = 2.0
CREATION_DATE  = 
ORIGINATOR     = 

OBJECT_NAME    = UNKNOWN
OBJECT_ID      = 
CENTER_NAME    = EARTH
REF_FRAME      = TEME
TIME_SYSTEM    = UTC
MEAN_ELEMENT_THEORY = SGP/SGP4

EPOCH          = 2026-01-12T22:54:36.523296
MEAN_MOTION    = 11.61039429
ECCENTRICITY   = .05455673
INCLINATION    = 102.4166
RA_OF_ASC_NODE = 97.0877
ARG_OF_PERICENTER = 271.4595
MEAN_ANOMALY   = 82.4020

EPHEMERIS_TYPE = 0
CLASSIFICATION_TYPE = U
NORAD_CAT_ID   = 270147
ELEMENT_SET_NO = 999
REV_AT_EPOCH   = 2203
BSTAR          = .82601327E-1
MEAN_MOTION_DOT = .6012E-4
MEAN_MOTION_DDOT = 0

CCSDS_OMM_VERS = 2.0
CREATION_DATE  = 
ORIGINATOR     = 

OBJECT_NAME    = UNKNOWN
OBJECT_ID      = 
CENTER_NAME    = EARTH
REF_FRAME      = TEME
TIME_SYSTEM    = UTC
MEAN_ELEMENT_THEORY = SGP/SGP4

EPOCH          = 2026-01-29T05:02:43.111680
MEAN_MOTION    = 13.06082740
ECCENTRICITY   = .003153
INCLINATION    = 90.3091
RA_OF_ASC_NODE = 11.7467
ARG_OF_PERICENTER = 86.8841
MEAN_ANOMALY   = 273.5891

EPHEMERIS_TYPE = 0
CLASSIFICATION_TYPE = U
NORAD_CAT_ID   = 270149
ELEMENT_SET_NO = 999
REV_AT_EPOCH   = 29322
BSTAR          = -.1465033E-2
MEAN_MOTION_DOT = -.474E-5
MEAN_MOTION_DDOT = 0

CCSDS_OMM_VERS = 2.0
CREATION_DATE  = 
ORIGINATOR     = 

OBJECT_NAME    = UNKNOWN
OBJECT_ID      = 
CENTER_NAME    = EARTH
REF_FRAME      = TEME
TIME_SYSTEM    = UTC
MEAN_ELEMENT_THEORY = SGP/SGP4

EPOCH          = 2026-01-18T08:13:24.670560
MEAN_MOTION    = 12.98936655
ECCENTRICITY   = .00386679
INCLINATION    = 90.3049
RA_OF_ASC_NODE = 39.2517
ARG_OF_PERICENTER = 23.6174
MEAN_ANOMALY   = 336.6712

EPHEMERIS_TYPE = 0
CLASSIFICATION_TYPE = U
NORAD_CAT_ID   = 270152
ELEMENT_SET_NO = 999
REV_AT_EPOCH   = 29115
BSTAR          = .27045481E-2
MEAN_MOTION_DOT = .811E-5
MEAN_MOTION_DDOT = 0

CCSDS_OMM_VERS = 2.0
CREATION_DATE  = 
ORIGINATOR     = 

OBJECT_NAME    = UNKNOWN
OBJECT_ID      = 
CENTER_NAME    = EARTH
REF_FRAME      = TEME
TIME_SYSTEM    = UTC
MEAN_ELEMENT_THEORY = SGP/SGP4

EPOCH          = 2026-01-27T13:18:12.619008
MEAN_MOTION    = 12.30451987
ECCENTRICITY   = .07419544
INCLINATION    = 83.2109
RA_OF_ASC_NODE = 133.6249
ARG_OF_PERICENTER = 284.5624
MEAN_ANOMALY   = 67.4338

EPHEMERIS_TYPE = 0
CLASSIFICATION_TYPE = U
NORAD_CAT_ID   = 270153
ELEMENT_SET_NO = 999
REV_AT_EPOCH   = 27649
BSTAR          = .95995331E-2
MEAN_MOTION_DOT = .2849E-4
MEAN_MOTION_DDOT = 0

CCSDS_OMM_VERS = 2.0
CREATION_DATE  = 
ORIGINATOR     = 

OBJECT_NAME    = UNKNOWN
OBJECT_ID      = 
CENTER_NAME    = EARTH
REF_FRAME      = TEME
TIME_SYSTEM    = UTC
MEAN_ELEMENT_THEORY = SGP/SGP4

EPOCH          = 2026-01-24T08:37:01.959744
MEAN_MOTION    = 12.54954750
ECCENTRICITY   = .00717463
INCLINATION    = 101.9199
RA_OF_ASC_NODE = 248.0535
ARG_OF_PERICENTER = 334.1185
MEAN_ANOMALY   = 25.6307

EPHEMERIS_TYPE = 0
CLASSIFICATION_TYPE = U
NORAD_CAT_ID   = 270155
ELEMENT_SET_NO = 999
REV_AT_EPOCH   = 28210
BSTAR          = .44159445E-2
MEAN_MOTION_DOT = .677E-5
MEAN_MOTION_DDOT = 0

CCSDS_OMM_VERS = 2.0
CREATION_DATE  = 
ORIGINATOR     = 

OBJECT_NAME    = UNKNOWN
OBJECT_ID      = 
CENTER_NAME    = EARTH
REF_FRAME      = TEME
TIME_SYSTEM    = UTC
MEAN_ELEMENT_THEORY = SGP/SGP4

EPOCH          = 2026-01-13T06:22:16.192416
MEAN_MOTION    = 13.04444228
ECCENTRICITY   = .00201991
INCLINATION    = 90.2266
RA_OF_ASC_NODE = 15.0000
ARG_OF_PERICENTER = 219.8543
MEAN_ANOMALY   = 140.1100

EPHEMERIS_TYPE = 0
CLASSIFICATION_TYPE = U
NORAD_CAT_ID   = 270156
ELEMENT_SET_NO = 999
REV_AT_EPOCH   = 29038
BSTAR          = -.15874114E-2
MEAN_MOTION_DOT = -.502E-5
MEAN_MOTION_DDOT = 0

CCSDS_OMM_VERS = 2.0
CREATION_DATE  = 
ORIGINATOR     = 

OBJECT_NAME    = UNKNOWN
OBJECT_ID      = 
CENTER_NAME    = EARTH
REF_FRAME      = TEME
TIME_SYSTEM    = UTC
MEAN_ELEMENT_THEORY = SGP/SGP4

EPOCH          = 2026-01-29T22:06:21.444192
MEAN_MOTION    = 12.76088210
ECCENTRICITY   = .09800511
INCLINATION    = 65.8252
RA_OF_ASC_NODE = 108.0154
ARG_OF_PERICENTER = 210.7749
MEAN_ANOMALY   = 143.2131

EPHEMERIS_TYPE = 0
CLASSIFICATION_TYPE = U
NORAD_CAT_ID   = 270157
ELEMENT_SET_NO = 999
REV_AT_EPOCH   = 28672
BSTAR          = .91484225E-3
MEAN_MOTION_DOT = .1521E-4
MEAN_MOTION_DDOT = 0

CCSDS_OMM_VERS = 2.0
CREATION_DATE  = 
ORIGINATOR     = 

OBJECT_NAME    = UNKNOWN
OBJECT_ID      = 
CENTER_NAME    = EARTH
REF_FRAME      = TEME
TIME_SYSTEM    = UTC
MEAN_ELEMENT_THEORY = SGP/SGP4

EPOCH          = 2026-01-24T01:26:30.671808
MEAN_MOTION    = 12.21564374
ECCENTRICITY   = .0136995
INCLINATION    = 74.0031
RA_OF_ASC_NODE = 148.4952
ARG_OF_PERICENTER = 263.3482
MEAN_ANOMALY   = 95.1944

EPHEMERIS_TYPE = 0
CLASSIFICATION_TYPE = U
NORAD_CAT_ID   = 270158
ELEMENT_SET_NO = 999
REV_AT_EPOCH   = 27484
BSTAR          = .14650188E-2
MEAN_MOTION_DOT = .144E-5
MEAN_MOTION_DDOT = 0

CCSDS_OMM_VERS = 2.0
CREATION_DATE  = 
ORIGINATOR     = 

OBJECT_NAME    = UNKNOWN
OBJECT_ID      = 
CENTER_NAME    = EARTH
REF_FRAME      = TEME
TIME_SYSTEM    = UTC
MEAN_ELEMENT_THEORY = SGP/SGP4

EPOCH          = 2026-01-20T13:45:15.827040
MEAN_MOTION    = 12.81657130
ECCENTRICITY   = .02794938
INCLINATION    = 62.9601
RA_OF_ASC_NODE = 125.7258
ARG_OF_PERICENTER = 221.1798
MEAN_ANOMALY   = 136.7803

EPHEMERIS_TYPE = 0
CLASSIFICATION_TYPE = U
NORAD_CAT_ID   = 270159
ELEMENT_SET_NO = 999
REV_AT_EPOCH   = 28778
BSTAR          = .1535921E-2
MEAN_MOTION_DOT = .344E-5
MEAN_MOTION_DDOT = 0

CCSDS_OMM_VERS = 2.0
CREATION_DATE  = 
ORIGINATOR     = 

OBJECT_NAME    = UNKNOWN
OBJECT_ID      = 
CENTER_NAME    = EARTH
REF_FRAME      = TEME
TIME_SYSTEM    = UTC
MEAN_ELEMENT_THEORY = SGP/SGP4

EPOCH          = 2026-01-25T15:23:42.536256
MEAN_MOTION    = 12.15873526
ECCENTRICITY   = .08692252
INCLINATION    = 83.2716
RA_OF_ASC_NODE = 357.5571
ARG_OF_PERICENTER = 174.6854
MEAN_ANOMALY   = 186.4231

EPHEMERIS_TYPE = 0
CLASSIFICATION_TYPE = U
NORAD_CAT_ID   = 270160
ELEMENT_SET_NO = 999
REV_AT_EPOCH   = 27236
BSTAR          = -.15476234E-3
MEAN_MOTION_DOT = -.37E-6
MEAN_MOTION_DDOT = 0

